ONEWEB-0545             
1 54647U 22166F   25261.66729796  .00000026  00000+0  30669-4 0  9996
2 54647  87.9198 298.1724 0001961  78.3819 281.7535 13.21822703135634
ONEWEB-0580             
1 54648U 22166G   25261.86759865  .00000017  00000+0  97333-5 0  9991
2 54648  87.9200 298.1303 0002171  85.8712 274.2670 13.21825225135708
ONEWEB-0582             
1 54649U 22166H   25261.53168645  .00000062  00000+0  11819-3 0  9999
2 54649  87.9192 298.1914 0002217  81.7791 278.3594 13.21822693135638
ONEWEB-0583             
1 54650U 22166J   25261.54272825  .00000000  00000+0 -32681-4 0  9992
2 54650  87.9197 298.2142 0001914  90.2353 269.9000 13.21823433135643
ONEWEB-0584             
1 54651U 22166K   25261.63892246  .00000004  00000+0 -21696-4 0  9996
2 54651  87.9214 298.1773 0002111  94.0403 266.0973 13.21824414135648
ONEWEB-0585             
1 54652U 22166L   25261.58845613  .00000117  00000+0  25086-3 0  9997
2 54652  87.9200 298.1757 0001916  97.9834 262.1517 13.21823481135642
ONEWEB-0586             
1 54653U 22166M   25261.60108224  .00000106  00000+0  22428-3 0  9996
2 54653  87.9200 298.1983 0001978  89.8816 270.2545 13.21823765135648
ONEWEB-0587             
1 54654U 22166N   25261.53485609  .00000081  00000+0  16410-3 0  9990
2 54654  87.9222 298.1567 0001782 113.5239 246.6083 13.21825665135799
