<?xml version="1.0" encoding="UTF-8"?>
<ndm xmlns:xsi="http://www.w3.org/2001/XMLSchema-instance" xsi:noNamespaceSchemaLocation="https://sanaregistry.org/r/ndmxml_unqualified/ndmxml-2.0.0-master-2.0.xsd">
<omm id="CCSDS_OMM_VERS" version="2.0">
<header><CREATION_DATE/><ORIGINATOR/></header><body><segment><metadata><OBJECT_NAME>ONEWEB-0545</OBJECT_NAME><OBJECT_ID>2022-166F</OBJECT_ID><CENTER_NAME>EARTH</CENTER_NAME><REF_FRAME>TEME</REF_FRAME><TIME_SYSTEM>UTC</TIME_SYSTEM><MEAN_ELEMENT_THEORY>SGP4</MEAN_ELEMENT_THEORY></metadata><data><meanElements><EPOCH>2025-09-18T16:00:54.543744</EPOCH><MEAN_MOTION>13.21822703</MEAN_MOTION><ECCENTRICITY>.00019614</ECCENTRICITY><INCLINATION>87.9198</INCLINATION><RA_OF_ASC_NODE>298.1724</RA_OF_ASC_NODE><ARG_OF_PERICENTER>78.3819</ARG_OF_PERICENTER><MEAN_ANOMALY>281.7535</MEAN_ANOMALY></meanElements><tleParameters><EPHEMERIS_TYPE>0</EPHEMERIS_TYPE><CLASSIFICATION_TYPE>U</CLASSIFICATION_TYPE><NORAD_CAT_ID>54647</NORAD_CAT_ID><ELEMENT_SET_NO>999</ELEMENT_SET_NO><REV_AT_EPOCH>13563</REV_AT_EPOCH><BSTAR>.30668594E-4</BSTAR><MEAN_MOTION_DOT>.26E-6</MEAN_MOTION_DOT><MEAN_MOTION_DDOT>0</MEAN_MOTION_DDOT></tleParameters></data></segment></body></omm>
<omm id="CCSDS_OMM_VERS" version="2.0">
<header><CREATION_DATE/><ORIGINATOR/></header><body><segment><metadata><OBJECT_NAME>ONEWEB-0580</OBJECT_NAME><OBJECT_ID>2022-166G</OBJECT_ID><CENTER_NAME>EARTH</CENTER_NAME><REF_FRAME>TEME</REF_FRAME><TIME_SYSTEM>UTC</TIME_SYSTEM><MEAN_ELEMENT_THEORY>SGP4</MEAN_ELEMENT_THEORY></metadata><data><meanElements><EPOCH>2025-09-18T20:49:20.523360</EPOCH><MEAN_MOTION>13.21825225</MEAN_MOTION><ECCENTRICITY>.0002171</ECCENTRICITY><INCLINATION>87.9200</INCLINATION><RA_OF_ASC_NODE>298.1303</RA_OF_ASC_NODE><ARG_OF_PERICENTER>85.8712</ARG_OF_PERICENTER><MEAN_ANOMALY>274.2670</MEAN_ANOMALY></meanElements><tleParameters><EPHEMERIS_TYPE>0</EPHEMERIS_TYPE><CLASSIFICATION_TYPE>U</CLASSIFICATION_TYPE><NORAD_CAT_ID>54648</NORAD_CAT_ID><ELEMENT_SET_NO>999</ELEMENT_SET_NO><REV_AT_EPOCH>13570</REV_AT_EPOCH><BSTAR>.9733334E-5</BSTAR><MEAN_MOTION_DOT>.17E-6</MEAN_MOTION_DOT><MEAN_MOTION_DDOT>0</MEAN_MOTION_DDOT></tleParameters></data></segment></body></omm>
<omm id="CCSDS_OMM_VERS" version="2.0">
<header><CREATION_DATE/><ORIGINATOR/></header><body><segment><metadata><OBJECT_NAME>ONEWEB-0582</OBJECT_NAME><OBJECT_ID>2022-166H</OBJECT_ID><CENTER_NAME>EARTH</CENTER_NAME><REF_FRAME>TEME</REF_FRAME><TIME_SYSTEM>UTC</TIME_SYSTEM><MEAN_ELEMENT_THEORY>SGP4</MEAN_ELEMENT_THEORY></metadata><data><meanElements><EPOCH>2025-09-18T12:45:37.709280</EPOCH><MEAN_MOTION>13.21822693</MEAN_MOTION><ECCENTRICITY>.00022171</ECCENTRICITY><INCLINATION>87.9192</INCLINATION><RA_OF_ASC_NODE>298.1914</RA_OF_ASC_NODE><ARG_OF_PERICENTER>81.7791</ARG_OF_PERICENTER><MEAN_ANOMALY>278.3594</MEAN_ANOMALY></meanElements><tleParameters><EPHEMERIS_TYPE>0</EPHEMERIS_TYPE><CLASSIFICATION_TYPE>U</CLASSIFICATION_TYPE><NORAD_CAT_ID>54649</NORAD_CAT_ID><ELEMENT_SET_NO>999</ELEMENT_SET_NO><REV_AT_EPOCH>13563</REV_AT_EPOCH><BSTAR>.11819168E-3</BSTAR><MEAN_MOTION_DOT>.62E-6</MEAN_MOTION_DOT><MEAN_MOTION_DDOT>0</MEAN_MOTION_DDOT></tleParameters></data></segment></body></omm>
<omm id="CCSDS_OMM_VERS" version="2.0">
<header><CREATION_DATE/><ORIGINATOR/></header><body><segment><metadata><OBJECT_NAME>ONEWEB-0583</OBJECT_NAME><OBJECT_ID>2022-166J</OBJECT_ID><CENTER_NAME>EARTH</CENTER_NAME><REF_FRAME>TEME</REF_FRAME><TIME_SYSTEM>UTC</TIME_SYSTEM><MEAN_ELEMENT_THEORY>SGP4</MEAN_ELEMENT_THEORY></metadata><data><meanElements><EPOCH>2025-09-18T13:01:31.720800</EPOCH><MEAN_MOTION>13.21823433</MEAN_MOTION><ECCENTRICITY>.00019148</ECCENTRICITY><INCLINATION>87.9197</INCLINATION><RA_OF_ASC_NODE>298.2142</RA_OF_ASC_NODE><ARG_OF_PERICENTER>90.2353</ARG_OF_PERICENTER><MEAN_ANOMALY>269.9000</MEAN_ANOMALY></meanElements><tleParameters><EPHEMERIS_TYPE>0</EPHEMERIS_TYPE><CLASSIFICATION_TYPE>U</CLASSIFICATION_TYPE><NORAD_CAT_ID>54650</NORAD_CAT_ID><ELEMENT_SET_NO>999</ELEMENT_SET_NO><REV_AT_EPOCH>13564</REV_AT_EPOCH><BSTAR>-.32680966E-4</BSTAR><MEAN_MOTION_DOT>0</MEAN_MOTION_DOT><MEAN_MOTION_DDOT>0</MEAN_MOTION_DDOT></tleParameters></data></segment></body></omm>
<omm id="CCSDS_OMM_VERS" version="2.0">
<header><CREATION_DATE/><ORIGINATOR/></header><body><segment><metadata><OBJECT_NAME>ONEWEB-0584</OBJECT_NAME><OBJECT_ID>2022-166K</OBJECT_ID><CENTER_NAME>EARTH</CENTER_NAME><REF_FRAME>TEME</REF_FRAME><TIME_SYSTEM>UTC</TIME_SYSTEM><MEAN_ELEMENT_THEORY>SGP4</MEAN_ELEMENT_THEORY></metadata><data><meanElements><EPOCH>2025-09-18T15:20:02.900544</EPOCH><MEAN_MOTION>13.21824414</MEAN_MOTION><ECCENTRICITY>.0002111</ECCENTRICITY><INCLINATION>87.9214</INCLINATION><RA_OF_ASC_NODE>298.1773</RA_OF_ASC_NODE><ARG_OF_PERICENTER>94.0403</ARG_OF_PERICENTER><MEAN_ANOMALY>266.0973</MEAN_ANOMALY></meanElements><tleParameters><EPHEMERIS_TYPE>0</EPHEMERIS_TYPE><CLASSIFICATION_TYPE>U</CLASSIFICATION_TYPE><NORAD_CAT_ID>54651</NORAD_CAT_ID><ELEMENT_SET_NO>999</ELEMENT_SET_NO><REV_AT_EPOCH>13564</REV_AT_EPOCH><BSTAR>-.216957E-4</BSTAR><MEAN_MOTION_DOT>.4E-7</MEAN_MOTION_DOT><MEAN_MOTION_DDOT>0</MEAN_MOTION_DDOT></tleParameters></data></segment></body></omm>
<omm id="CCSDS_OMM_VERS" version="2.0">
<header><CREATION_DATE/><ORIGINATOR/></header><body><segment><metadata><OBJECT_NAME>ONEWEB-0585</OBJECT_NAME><OBJECT_ID>2022-166L</OBJECT_ID><CENTER_NAME>EARTH</CENTER_NAME><REF_FRAME>TEME</REF_FRAME><TIME_SYSTEM>UTC</TIME_SYSTEM><MEAN_ELEMENT_THEORY>SGP4</MEAN_ELEMENT_THEORY></metadata><data><meanElements><EPOCH>2025-09-18T14:07:22.609632</EPOCH><MEAN_MOTION>13.21823481</MEAN_MOTION><ECCENTRICITY>.0001916</ECCENTRICITY><INCLINATION>87.9200</INCLINATION><RA_OF_ASC_NODE>298.1757</RA_OF_ASC_NODE><ARG_OF_PERICENTER>97.9834</ARG_OF_PERICENTER><MEAN_ANOMALY>262.1517</MEAN_ANOMALY></meanElements><tleParameters><EPHEMERIS_TYPE>0</EPHEMERIS_TYPE><CLASSIFICATION_TYPE>U</CLASSIFICATION_TYPE><NORAD_CAT_ID>54652</NORAD_CAT_ID><ELEMENT_SET_NO>999</ELEMENT_SET_NO><REV_AT_EPOCH>13564</REV_AT_EPOCH><BSTAR>.25085591E-3</BSTAR><MEAN_MOTION_DOT>.117E-5</MEAN_MOTION_DOT><MEAN_MOTION_DDOT>0</MEAN_MOTION_DDOT></tleParameters></data></segment></body></omm>
<omm id="CCSDS_OMM_VERS" version="2.0">
<header><CREATION_DATE/><ORIGINATOR/></header><body><segment><metadata><OBJECT_NAME>ONEWEB-0586</OBJECT_NAME><OBJECT_ID>2022-166M</OBJECT_ID><CENTER_NAME>EARTH</CENTER_NAME><REF_FRAME>TEME</REF_FRAME><TIME_SYSTEM>UTC</TIME_SYSTEM><MEAN_ELEMENT_THEORY>SGP4</MEAN_ELEMENT_THEORY></metadata><data><meanElements><EPOCH>2025-09-18T14:25:33.505536</EPOCH><MEAN_MOTION>13.21823765</MEAN_MOTION><ECCENTRICITY>.00019783</ECCENTRICITY><INCLINATION>87.9200</INCLINATION><RA_OF_ASC_NODE>298.1983</RA_OF_ASC_NODE><ARG_OF_PERICENTER>89.8816</ARG_OF_PERICENTER><MEAN_ANOMALY>270.2545</MEAN_ANOMALY></meanElements><tleParameters><EPHEMERIS_TYPE>0</EPHEMERIS_TYPE><CLASSIFICATION_TYPE>U</CLASSIFICATION_TYPE><NORAD_CAT_ID>54653</NORAD_CAT_ID><ELEMENT_SET_NO>999</ELEMENT_SET_NO><REV_AT_EPOCH>13564</REV_AT_EPOCH><BSTAR>.22427627E-3</BSTAR><MEAN_MOTION_DOT>.106E-5</MEAN_MOTION_DOT><MEAN_MOTION_DDOT>0</MEAN_MOTION_DDOT></tleParameters></data></segment></body></omm>
<omm id="CCSDS_OMM_VERS" version="2.0">
<header><CREATION_DATE/><ORIGINATOR/></header><body><segment><metadata><OBJECT_NAME>ONEWEB-0587</OBJECT_NAME><OBJECT_ID>2022-166N</OBJECT_ID><CENTER_NAME>EARTH</CENTER_NAME><REF_FRAME>TEME</REF_FRAME><TIME_SYSTEM>UTC</TIME_SYSTEM><MEAN_ELEMENT_THEORY>SGP4</MEAN_ELEMENT_THEORY></metadata><data><meanElements><EPOCH>2025-09-18T12:50:11.566176</EPOCH><MEAN_MOTION>13.21825665</MEAN_MOTION><ECCENTRICITY>.00017824</ECCENTRICITY><INCLINATION>87.9222</INCLINATION><RA_OF_ASC_NODE>298.1567</RA_OF_ASC_NODE><ARG_OF_PERICENTER>113.5239</ARG_OF_PERICENTER><MEAN_ANOMALY>246.6083</MEAN_ANOMALY></meanElements><tleParameters><EPHEMERIS_TYPE>0</EPHEMERIS_TYPE><CLASSIFICATION_TYPE>U</CLASSIFICATION_TYPE><NORAD_CAT_ID>54654</NORAD_CAT_ID><ELEMENT_SET_NO>999</ELEMENT_SET_NO><REV_AT_EPOCH>13579</REV_AT_EPOCH><BSTAR>.1640956E-3</BSTAR><MEAN_MOTION_DOT>.81E-6</MEAN_MOTION_DOT><MEAN_MOTION_DDOT>0</MEAN_MOTION_DDOT></tleParameters></data></segment></body></omm>

</ndm>
